{
  "norad_id": 59000,
  "name": "STARLINK-31529",
  "history": [
    {
      "epoch": "2026-04-11T20:46:10.929792Z",
      "apogee_km": 475.87952705690077,
      "perigee_km": 474.6102807282996,
      "latitude_deg": 7.463043813168818e-06,
      "longitude_deg": 130.2101047806106,
      "height_km": 476.42490026811714,
      "semi_major_axis_km": 6853.381903892599,
      "eccentricity": 9.26e-05,
      "inclination_deg": 53.1602,
      "raan_deg": 281.8344,
      "arg_perigee_deg": 116.3138,
      "mean_anomaly_deg": 243.7958,
      "mean_motion_rev_day": 15.30190008
    },
    {
      "epoch": "2026-04-13T04:07:14.549088Z",
      "apogee_km": 475.9806134229593,
      "perigee_km": 474.45574189592935,
      "latitude_deg": 6.528080424721032e-05,
      "longitude_deg": 12.588226796207477,
      "height_km": 475.9523824800629,
      "semi_major_axis_km": 6853.355177659444,
      "eccentricity": 0.00011125,
      "inclination_deg": 53.1619,
      "raan_deg": 275.7651,
      "arg_perigee_deg": 77.5542,
      "mean_anomaly_deg": 282.5584,
      "mean_motion_rev_day": 15.30198959
    },
    {
      "epoch": "2026-04-14T17:44:31.528320Z",
      "apogee_km": 475.8969709905732,
      "perigee_km": 474.59893988001295,
      "latitude_deg": 2.0011811654494427e-05,
      "longitude_deg": 159.4432925711654,
      "height_km": 476.0399456753617,
      "semi_major_axis_km": 6853.384955435293,
      "eccentricity": 9.47e-05,
      "inclination_deg": 53.1617,
      "raan_deg": 268.486,
      "arg_perigee_deg": 80.5361,
      "mean_anomaly_deg": 279.5747,
      "mean_motion_rev_day": 15.30188986
    },
    {
      "epoch": "2026-04-15T20:23:25.275840Z",
      "apogee_km": 475.83702537212866,
      "perigee_km": 474.58971560469945,
      "latitude_deg": -1.3479691777463456e-05,
      "longitude_deg": 113.4672164326049,
      "height_km": 475.9251277774616,
      "semi_major_axis_km": 6853.350370488413,
      "eccentricity": 9.1e-05,
      "inclination_deg": 53.161,
      "raan_deg": 263.3283,
      "arg_perigee_deg": 72.5545,
      "mean_anomaly_deg": 287.5555,
      "mean_motion_rev_day": 15.30200569
    },
    {
      "epoch": "2026-04-16T19:54:13.634208Z",
      "apogee_km": 475.9198560904624,
      "perigee_km": 474.5628871728795,
      "latitude_deg": 4.3626010065220276e-05,
      "longitude_deg": 115.24900527180421,
      "height_km": 475.88021246134053,
      "semi_major_axis_km": 6853.37837163167,
      "eccentricity": 9.9e-05,
      "inclination_deg": 53.1605,
      "raan_deg": 258.7772,
      "arg_perigee_deg": 67.4893,
      "mean_anomaly_deg": 292.6213,
      "mean_motion_rev_day": 15.30191191
    },
    {
      "epoch": "2026-04-17T20:59:04.928640Z",
      "apogee_km": 475.90177384068465,
      "perigee_km": 474.56591479570943,
      "latitude_deg": 8.831136545204601e-07,
      "longitude_deg": 93.1501113785426,
      "height_km": 475.8789906036381,
      "semi_major_axis_km": 6853.370844318197,
      "eccentricity": 9.746e-05,
      "inclination_deg": 53.1612,
      "raan_deg": 253.9221,
      "arg_perigee_deg": 67.6902,
      "mean_anomaly_deg": 292.4202,
      "mean_motion_rev_day": 15.30193712
    },
    {
      "epoch": "2026-04-18T15:47:42.774144Z",
      "apogee_km": 475.88138407083625,
      "perigee_km": 474.54223971299234,
      "latitude_deg": 2.202562421978466e-05,
      "longitude_deg": 166.58021736615456,
      "height_km": 475.87898351945273,
      "semi_major_axis_km": 6853.348811891914,
      "eccentricity": 9.77e-05,
      "inclination_deg": 53.161,
      "raan_deg": 250.2824,
      "arg_perigee_deg": 69.7739,
      "mean_anomaly_deg": 290.3367,
      "mean_motion_rev_day": 15.30201091
    },
    {
      "epoch": "2026-04-19T15:18:31.351968Z",
      "apogee_km": 476.0121556700333,
      "perigee_km": 474.47836871975323,
      "latitude_deg": -6.462585779336502e-05,
      "longitude_deg": 168.36057952610128,
      "height_km": 476.1826448131395,
      "semi_major_axis_km": 6853.382262194893,
      "eccentricity": 0.0001119,
      "inclination_deg": 53.1611,
      "raan_deg": 245.7309,
      "arg_perigee_deg": 92.9133,
      "mean_anomaly_deg": 267.1995,
      "mean_motion_rev_day": 15.30189888
    },
    {
      "epoch": "2026-04-20T14:49:19.201440Z",
      "apogee_km": 476.0526665348798,
      "perigee_km": 474.41991888162556,
      "latitude_deg": 1.8797629231515196e-05,
      "longitude_deg": 170.1447104867214,
      "height_km": 476.3431237356554,
      "semi_major_axis_km": 6853.373292708253,
      "eccentricity": 0.00011912,
      "inclination_deg": 53.1614,
      "raan_deg": 241.18,
      "arg_perigee_deg": 104.7938,
      "mean_anomaly_deg": 255.3195,
      "mean_motion_rev_day": 15.30192892
    }
  ]
}